QIANFAN-81              
1 63167U 25046J   25251.61319866  .00000202  00000+0  29398-3 0  9992
2 63167  88.9852 329.6948 0015529  44.0948 316.1438 13.50973796 34640
QIANFAN-82              
1 63168U 25046K   25251.57199815  .00000196  00000+0  28437-3 0  9993
2 63168  88.9853 329.7425 0013982  52.6025 307.6397 13.50970645 34622
QIANFAN-83              
1 63169U 25046L   25251.55840780  .00000235  00000+0  28943-3 0  9992
2 63169  88.9852 329.7069 0014945  43.1017 317.1307 13.61947743 34646
QIANFAN-84              
1 63170U 25046M   25251.60067796  .00000187  00000+0  27067-3 0  9990
2 63170  88.9853 329.8726 0016789  47.5895 312.6673 13.50976637 34558
QIANFAN-85              
1 63171U 25046N   25251.59677926  .00000201  00000+0  29239-3 0  9991
2 63171  88.9852 329.7451 0014285  51.3145 308.9282 13.50971798 34627
QIANFAN-86              
1 63172U 25046P   25251.60499678  .00000194  00000+0  28243-3 0  9995
2 63172  88.9854 329.6042 0012325  56.6559 303.5770 13.50972275 34708
QIANFAN-87              
1 63173U 25046Q   25251.50210339  .00000200  00000+0  29107-3 0  9998
2 63173  88.9851 329.7300 0012868  51.7824 308.4484 13.50968534 34627
QIANFAN-88              
1 63174U 25046R   25251.59263640  .00000201  00000+0  29176-3 0  9998
2 63174  88.9853 329.6729 0013498  58.5313 301.7156 13.50976133 34662
