<?xml version="1.0" encoding="UTF-8"?>
<ndm xmlns:xsi="http://www.w3.org/2001/XMLSchema-instance" xsi:noNamespaceSchemaLocation="https://sanaregistry.org/r/ndmxml_unqualified/ndmxml-2.0.0-master-2.0.xsd">
<omm id="CCSDS_OMM_VERS" version="2.0">
<header><CREATION_DATE/><ORIGINATOR/></header><body><segment><metadata><OBJECT_NAME>QIANFAN-81</OBJECT_NAME><OBJECT_ID>2025-046J</OBJECT_ID><CENTER_NAME>EARTH</CENTER_NAME><REF_FRAME>TEME</REF_FRAME><TIME_SYSTEM>UTC</TIME_SYSTEM><MEAN_ELEMENT_THEORY>SGP4</MEAN_ELEMENT_THEORY></metadata><data><meanElements><EPOCH>2025-09-08T14:43:00.364224</EPOCH><MEAN_MOTION>13.50973796</MEAN_MOTION><ECCENTRICITY>.00155294</ECCENTRICITY><INCLINATION>88.9852</INCLINATION><RA_OF_ASC_NODE>329.6948</RA_OF_ASC_NODE><ARG_OF_PERICENTER>44.0948</ARG_OF_PERICENTER><MEAN_ANOMALY>316.1438</MEAN_ANOMALY></meanElements><tleParameters><EPHEMERIS_TYPE>0</EPHEMERIS_TYPE><CLASSIFICATION_TYPE>U</CLASSIFICATION_TYPE><NORAD_CAT_ID>63167</NORAD_CAT_ID><ELEMENT_SET_NO>999</ELEMENT_SET_NO><REV_AT_EPOCH>3464</REV_AT_EPOCH><BSTAR>.29398469E-3</BSTAR><MEAN_MOTION_DOT>.202E-5</MEAN_MOTION_DOT><MEAN_MOTION_DDOT>0</MEAN_MOTION_DDOT></tleParameters></data></segment></body></omm>
<omm id="CCSDS_OMM_VERS" version="2.0">
<header><CREATION_DATE/><ORIGINATOR/></header><body><segment><metadata><OBJECT_NAME>QIANFAN-82</OBJECT_NAME><OBJECT_ID>2025-046K</OBJECT_ID><CENTER_NAME>EARTH</CENTER_NAME><REF_FRAME>TEME</REF_FRAME><TIME_SYSTEM>UTC</TIME_SYSTEM><MEAN_ELEMENT_THEORY>SGP4</MEAN_ELEMENT_THEORY></metadata><data><meanElements><EPOCH>2025-09-08T13:43:40.640160</EPOCH><MEAN_MOTION>13.50970645</MEAN_MOTION><ECCENTRICITY>.00139826</ECCENTRICITY><INCLINATION>88.9853</INCLINATION><RA_OF_ASC_NODE>329.7425</RA_OF_ASC_NODE><ARG_OF_PERICENTER>52.6025</ARG_OF_PERICENTER><MEAN_ANOMALY>307.6397</MEAN_ANOMALY></meanElements><tleParameters><EPHEMERIS_TYPE>0</EPHEMERIS_TYPE><CLASSIFICATION_TYPE>U</CLASSIFICATION_TYPE><NORAD_CAT_ID>63168</NORAD_CAT_ID><ELEMENT_SET_NO>999</ELEMENT_SET_NO><REV_AT_EPOCH>3462</REV_AT_EPOCH><BSTAR>.28437002E-3</BSTAR><MEAN_MOTION_DOT>.196E-5</MEAN_MOTION_DOT><MEAN_MOTION_DDOT>0</MEAN_MOTION_DDOT></tleParameters></data></segment></body></omm>
<omm id="CCSDS_OMM_VERS" version="2.0">
<header><CREATION_DATE/><ORIGINATOR/></header><body><segment><metadata><OBJECT_NAME>QIANFAN-83</OBJECT_NAME><OBJECT_ID>2025-046L</OBJECT_ID><CENTER_NAME>EARTH</CENTER_NAME><REF_FRAME>TEME</REF_FRAME><TIME_SYSTEM>UTC</TIME_SYSTEM><MEAN_ELEMENT_THEORY>SGP4</MEAN_ELEMENT_THEORY></metadata><data><meanElements><EPOCH>2025-09-08T13:24:06.433920</EPOCH><MEAN_MOTION>13.61947743</MEAN_MOTION><ECCENTRICITY>.00149457</ECCENTRICITY><INCLINATION>88.9852</INCLINATION><RA_OF_ASC_NODE>329.7069</RA_OF_ASC_NODE><ARG_OF_PERICENTER>43.1017</ARG_OF_PERICENTER><MEAN_ANOMALY>317.1307</MEAN_ANOMALY></meanElements><tleParameters><EPHEMERIS_TYPE>0</EPHEMERIS_TYPE><CLASSIFICATION_TYPE>U</CLASSIFICATION_TYPE><NORAD_CAT_ID>63169</NORAD_CAT_ID><ELEMENT_SET_NO>999</ELEMENT_SET_NO><REV_AT_EPOCH>3464</REV_AT_EPOCH><BSTAR>.28943189E-3</BSTAR><MEAN_MOTION_DOT>.235E-5</MEAN_MOTION_DOT><MEAN_MOTION_DDOT>0</MEAN_MOTION_DDOT></tleParameters></data></segment></body></omm>
<omm id="CCSDS_OMM_VERS" version="2.0">
<header><CREATION_DATE/><ORIGINATOR/></header><body><segment><metadata><OBJECT_NAME>QIANFAN-84</OBJECT_NAME><OBJECT_ID>2025-046M</OBJECT_ID><CENTER_NAME>EARTH</CENTER_NAME><REF_FRAME>TEME</REF_FRAME><TIME_SYSTEM>UTC</TIME_SYSTEM><MEAN_ELEMENT_THEORY>SGP4</MEAN_ELEMENT_THEORY></metadata><data><meanElements><EPOCH>2025-09-08T14:24:58.575744</EPOCH><MEAN_MOTION>13.50976637</MEAN_MOTION><ECCENTRICITY>.00167891</ECCENTRICITY><INCLINATION>88.9853</INCLINATION><RA_OF_ASC_NODE>329.8726</RA_OF_ASC_NODE><ARG_OF_PERICENTER>47.5895</ARG_OF_PERICENTER><MEAN_ANOMALY>312.6673</MEAN_ANOMALY></meanElements><tleParameters><EPHEMERIS_TYPE>0</EPHEMERIS_TYPE><CLASSIFICATION_TYPE>U</CLASSIFICATION_TYPE><NORAD_CAT_ID>63170</NORAD_CAT_ID><ELEMENT_SET_NO>999</ELEMENT_SET_NO><REV_AT_EPOCH>3455</REV_AT_EPOCH><BSTAR>.27067271E-3</BSTAR><MEAN_MOTION_DOT>.187E-5</MEAN_MOTION_DOT><MEAN_MOTION_DDOT>0</MEAN_MOTION_DDOT></tleParameters></data></segment></body></omm>
<omm id="CCSDS_OMM_VERS" version="2.0">
<header><CREATION_DATE/><ORIGINATOR/></header><body><segment><metadata><OBJECT_NAME>QIANFAN-85</OBJECT_NAME><OBJECT_ID>2025-046N</OBJECT_ID><CENTER_NAME>EARTH</CENTER_NAME><REF_FRAME>TEME</REF_FRAME><TIME_SYSTEM>UTC</TIME_SYSTEM><MEAN_ELEMENT_THEORY>SGP4</MEAN_ELEMENT_THEORY></metadata><data><meanElements><EPOCH>2025-09-08T14:19:21.728064</EPOCH><MEAN_MOTION>13.50971798</MEAN_MOTION><ECCENTRICITY>.00142852</ECCENTRICITY><INCLINATION>88.9852</INCLINATION><RA_OF_ASC_NODE>329.7451</RA_OF_ASC_NODE><ARG_OF_PERICENTER>51.3145</ARG_OF_PERICENTER><MEAN_ANOMALY>308.9282</MEAN_ANOMALY></meanElements><tleParameters><EPHEMERIS_TYPE>0</EPHEMERIS_TYPE><CLASSIFICATION_TYPE>U</CLASSIFICATION_TYPE><NORAD_CAT_ID>63171</NORAD_CAT_ID><ELEMENT_SET_NO>999</ELEMENT_SET_NO><REV_AT_EPOCH>3462</REV_AT_EPOCH><BSTAR>.29239113E-3</BSTAR><MEAN_MOTION_DOT>.201E-5</MEAN_MOTION_DOT><MEAN_MOTION_DDOT>0</MEAN_MOTION_DDOT></tleParameters></data></segment></body></omm>
<omm id="CCSDS_OMM_VERS" version="2.0">
<header><CREATION_DATE/><ORIGINATOR/></header><body><segment><metadata><OBJECT_NAME>QIANFAN-86</OBJECT_NAME><OBJECT_ID>2025-046P</OBJECT_ID><CENTER_NAME>EARTH</CENTER_NAME><REF_FRAME>TEME</REF_FRAME><TIME_SYSTEM>UTC</TIME_SYSTEM><MEAN_ELEMENT_THEORY>SGP4</MEAN_ELEMENT_THEORY></metadata><data><meanElements><EPOCH>2025-09-08T14:31:11.721792</EPOCH><MEAN_MOTION>13.50972275</MEAN_MOTION><ECCENTRICITY>.00123253</ECCENTRICITY><INCLINATION>88.9854</INCLINATION><RA_OF_ASC_NODE>329.6042</RA_OF_ASC_NODE><ARG_OF_PERICENTER>56.6559</ARG_OF_PERICENTER><MEAN_ANOMALY>303.5770</MEAN_ANOMALY></meanElements><tleParameters><EPHEMERIS_TYPE>0</EPHEMERIS_TYPE><CLASSIFICATION_TYPE>U</CLASSIFICATION_TYPE><NORAD_CAT_ID>63172</NORAD_CAT_ID><ELEMENT_SET_NO>999</ELEMENT_SET_NO><REV_AT_EPOCH>3470</REV_AT_EPOCH><BSTAR>.28243123E-3</BSTAR><MEAN_MOTION_DOT>.194E-5</MEAN_MOTION_DOT><MEAN_MOTION_DDOT>0</MEAN_MOTION_DDOT></tleParameters></data></segment></body></omm>
<omm id="CCSDS_OMM_VERS" version="2.0">
<header><CREATION_DATE/><ORIGINATOR/></header><body><segment><metadata><OBJECT_NAME>QIANFAN-87</OBJECT_NAME><OBJECT_ID>2025-046Q</OBJECT_ID><CENTER_NAME>EARTH</CENTER_NAME><REF_FRAME>TEME</REF_FRAME><TIME_SYSTEM>UTC</TIME_SYSTEM><MEAN_ELEMENT_THEORY>SGP4</MEAN_ELEMENT_THEORY></metadata><data><meanElements><EPOCH>2025-09-08T12:03:01.732896</EPOCH><MEAN_MOTION>13.50968534</MEAN_MOTION><ECCENTRICITY>.00128683</ECCENTRICITY><INCLINATION>88.9851</INCLINATION><RA_OF_ASC_NODE>329.7300</RA_OF_ASC_NODE><ARG_OF_PERICENTER>51.7824</ARG_OF_PERICENTER><MEAN_ANOMALY>308.4484</MEAN_ANOMALY></meanElements><tleParameters><EPHEMERIS_TYPE>0</EPHEMERIS_TYPE><CLASSIFICATION_TYPE>U</CLASSIFICATION_TYPE><NORAD_CAT_ID>63173</NORAD_CAT_ID><ELEMENT_SET_NO>999</ELEMENT_SET_NO><REV_AT_EPOCH>3462</REV_AT_EPOCH><BSTAR>.29107103E-3</BSTAR><MEAN_MOTION_DOT>.2E-5</MEAN_MOTION_DOT><MEAN_MOTION_DDOT>0</MEAN_MOTION_DDOT></tleParameters></data></segment></body></omm>
<omm id="CCSDS_OMM_VERS" version="2.0">
<header><CREATION_DATE/><ORIGINATOR/></header><body><segment><metadata><OBJECT_NAME>QIANFAN-88</OBJECT_NAME><OBJECT_ID>2025-046R</OBJECT_ID><CENTER_NAME>EARTH</CENTER_NAME><REF_FRAME>TEME</REF_FRAME><TIME_SYSTEM>UTC</TIME_SYSTEM><MEAN_ELEMENT_THEORY>SGP4</MEAN_ELEMENT_THEORY></metadata><data><meanElements><EPOCH>2025-09-08T14:13:23.784960</EPOCH><MEAN_MOTION>13.50976133</MEAN_MOTION><ECCENTRICITY>.00134987</ECCENTRICITY><INCLINATION>88.9853</INCLINATION><RA_OF_ASC_NODE>329.6729</RA_OF_ASC_NODE><ARG_OF_PERICENTER>58.5313</ARG_OF_PERICENTER><MEAN_ANOMALY>301.7156</MEAN_ANOMALY></meanElements><tleParameters><EPHEMERIS_TYPE>0</EPHEMERIS_TYPE><CLASSIFICATION_TYPE>U</CLASSIFICATION_TYPE><NORAD_CAT_ID>63174</NORAD_CAT_ID><ELEMENT_SET_NO>999</ELEMENT_SET_NO><REV_AT_EPOCH>3466</REV_AT_EPOCH><BSTAR>.29175827E-3</BSTAR><MEAN_MOTION_DOT>.201E-5</MEAN_MOTION_DOT><MEAN_MOTION_DDOT>0</MEAN_MOTION_DDOT></tleParameters></data></segment></body></omm>

</ndm>
